start=new Date('2023-01-29T00:00:00.000Z').valueOf();
sats=[{"LAUNCH_DATE":"2022-08-19","RA_OF_ASC_NODE":"133.4870","GP_ID":"223913982","MEAN_ANOMALY":"263.9480","ARG_OF_PERICENTER":"96.1678","MEAN_ELEMENT_THEORY":"SGP4","PERIAPSIS":"538.712","REF_FRAME":"TEME","NORAD_CAT_ID":"53541","RCS_SIZE":"LARGE","PERIOD":"95.437","SEMIMAJOR_AXIS":"6917.850","TIME_SYSTEM":"UTC","TLE_LINE1":"1 53541U 22101Q   23028.76599209  .00001391  00000-0  10547-3 0  9990","APOAPSIS":"540.719","MEAN_MOTION_DDOT":"0.0000000000000","INCLINATION":"53.2169","CLASSIFICATION_TYPE":"U","OBJECT_ID":"2022-101Q","MEAN_MOTION_DOT":"0.00001391","SITE":"AFETR","ECCENTRICITY":"0.00014510","FILE":"3764201","EPHEMERIS_TYPE":"0","OBJECT_NAME":"STARLINK-4485","CENTER_NAME":"EARTH","TLE_LINE2":"2 53541  53.2169 133.4870 0001451  96.1678 263.9480 15.08849826 25370","OBJECT_TYPE":"PAYLOAD","REV_AT_EPOCH":"2537","EPOCH":"2023-01-28T18:23:01.716576","MEAN_MOTION":"15.08849826","DECAY_DATE":null,"ELEMENT_SET_NO":"999","COUNTRY_CODE":"US","BSTAR":"0.00010547000000"},{"OBJECT_NAME":"STARLINK-4489","CENTER_NAME":"EARTH","TLE_LINE2":"2 53542  53.2171 124.4600 0001446 116.7922 243.3218 15.08849362 25477","OBJECT_TYPE":"PAYLOAD","REV_AT_EPOCH":"2547","EPOCH":"2023-01-28T13:06:24.367104","MEAN_MOTION_DOT":"0.00002483","SITE":"AFETR","ECCENTRICITY":"0.00014460","EPHEMERIS_TYPE":"0","FILE":"3763924","MEAN_MOTION":"15.08849362","DECAY_DATE":null,"COUNTRY_CODE":"US","ELEMENT_SET_NO":"999","BSTAR":"0.00017402000000","MEAN_ANOMALY":"243.3218","ARG_OF_PERICENTER":"116.7922","MEAN_ELEMENT_THEORY":"SGP4","PERIAPSIS":"538.716","REF_FRAME":"TEME","NORAD_CAT_ID":"53542","LAUNCH_DATE":"2022-08-19","RA_OF_ASC_NODE":"124.4600","GP_ID":"223883177","TLE_LINE1":"1 53542U 22101R   23028.54611536  .00002483  00000-0  17402-3 0  9995","APOAPSIS":"540.717","MEAN_MOTION_DDOT":"0.0000000000000","INCLINATION":"53.2171","OBJECT_ID":"2022-101R","CLASSIFICATION_TYPE":"U","RCS_SIZE":"LARGE","PERIOD":"95.437","SEMIMAJOR_AXIS":"6917.852","TIME_SYSTEM":"UTC"},{"MEAN_ANOMALY":"247.3640","ARG_OF_PERICENTER":"112.7500","MEAN_ELEMENT_THEORY":"SGP4","NORAD_CAT_ID":"53543","PERIAPSIS":"538.683","REF_FRAME":"TEME","LAUNCH_DATE":"2022-08-19","GP_ID":"223914975","RA_OF_ASC_NODE":"123.8694","APOAPSIS":"540.610","TLE_LINE1":"1 53543U 22101S   23028.69332072 -.00007815  00000-0 -47305-3 0  9998","MEAN_MOTION_DDOT":"0.0000000000000","INCLINATION":"53.2179","OBJECT_ID":"2022-101S","CLASSIFICATION_TYPE":"U","PERIOD":"95.436","RCS_SIZE":"LARGE","TIME_SYSTEM":"UTC","SEMIMAJOR_AXIS":"6917.781","OBJECT_NAME":"STARLINK-4297","CENTER_NAME":"EARTH","TLE_LINE2":"2 53543  53.2179 123.8694 0001393 112.7500 247.3640 15.08872391 25494","REV_AT_EPOCH":"2549","OBJECT_TYPE":"PAYLOAD","EPOCH":"2023-01-28T16:38:22.910208","SITE":"AFETR","MEAN_MOTION_DOT":"-0.00007815","ECCENTRICITY":"0.00013930","FILE":"3764201","EPHEMERIS_TYPE":"0","DECAY_DATE":null,"MEAN_MOTION":"15.08872391","COUNTRY_CODE":"US","ELEMENT_SET_NO":"999","BSTAR":"-0.00047305000000"},{"ECCENTRICITY":"0.00013410","EPHEMERIS_TYPE":"0","FILE":"3764201","MEAN_MOTION_DOT":"0.00001255","SITE":"AFETR","OBJECT_TYPE":"PAYLOAD","REV_AT_EPOCH":"2547","EPOCH":"2023-01-28T16:06:34.623648","OBJECT_NAME":"STARLINK-4303","CENTER_NAME":"EARTH","TLE_LINE2":"2 53544  53.2168 123.9022 0001341 114.6766 245.4365 15.08846830 25477","ELEMENT_SET_NO":"999","COUNTRY_CODE":"US","BSTAR":"0.00009688600000","MEAN_MOTION":"15.08846830","DECAY_DATE":null,"RA_OF_ASC_NODE":"123.9022","GP_ID":"223915699","LAUNCH_DATE":"2022-08-19","MEAN_ELEMENT_THEORY":"SGP4","PERIAPSIS":"538.797","REF_FRAME":"TEME","NORAD_CAT_ID":"53544","ARG_OF_PERICENTER":"114.6766","MEAN_ANOMALY":"245.4365","RCS_SIZE":"LARGE","PERIOD":"95.437","SEMIMAJOR_AXIS":"6917.860","TIME_SYSTEM":"UTC","INCLINATION":"53.2168","OBJECT_ID":"2022-101T","CLASSIFICATION_TYPE":"U","TLE_LINE1":"1 53544U 22101T   23028.67123407  .00001255  00000-0  96886-4 0  9996","APOAPSIS":"540.652","MEAN_MOTION_DDOT":"0.0000000000000"},{"MEAN_MOTION_DDOT":"0.0000000000000","TLE_LINE1":"1 53545U 22101U   23028.61603699 -.00000889  00000-0 -37787-4 0  9996","APOAPSIS":"540.730","CLASSIFICATION_TYPE":"U","OBJECT_ID":"2022-101U","INCLINATION":"53.2190","SEMIMAJOR_AXIS":"6917.873","TIME_SYSTEM":"UTC","RCS_SIZE":"LARGE","PERIOD":"95.437","ARG_OF_PERICENTER":"111.0943","MEAN_ANOMALY":"249.0202","REF_FRAME":"TEME","PERIAPSIS":"538.746","NORAD_CAT_ID":"53545","MEAN_ELEMENT_THEORY":"SGP4","LAUNCH_DATE":"2022-08-19","RA_OF_ASC_NODE":"124.1484","GP_ID":"223914481","MEAN_MOTION":"15.08842294","DECAY_DATE":null,"BSTAR":"-0.00003778700000","COUNTRY_CODE":"US","ELEMENT_SET_NO":"999","CENTER_NAME":"EARTH","TLE_LINE2":"2 53545  53.2190 124.1484 0001434 111.0943 249.0202 15.08842294 25480","OBJECT_NAME":"STARLINK-4475","EPOCH":"2023-01-28T14:47:05.595936","OBJECT_TYPE":"PAYLOAD","REV_AT_EPOCH":"2548","MEAN_MOTION_DOT":"-0.00000889","SITE":"AFETR","FILE":"3764201","EPHEMERIS_TYPE":"0","ECCENTRICITY":"0.00014340"},{"SITE":"AFETR","MEAN_MOTION_DOT":"-0.00000465","ECCENTRICITY":"0.00014880","FILE":"3764201","EPHEMERIS_TYPE":"0","OBJECT_NAME":"STARLINK-4477","TLE_LINE2":"2 53546  53.2209 113.6574 0001488  71.8685 288.2469 15.08843261 24945","CENTER_NAME":"EARTH","REV_AT_EPOCH":"2494","OBJECT_TYPE":"PAYLOAD","EPOCH":"2023-01-28T14:53:38.260608","DECAY_DATE":null,"MEAN_MOTION":"15.08843261","COUNTRY_CODE":"US","ELEMENT_SET_NO":"999","BSTAR":"-0.00001114000000","LAUNCH_DATE":"2022-08-19","GP_ID":"223914729","RA_OF_ASC_NODE":"113.6574","MEAN_ANOMALY":"288.2469","ARG_OF_PERICENTER":"71.8685","MEAN_ELEMENT_THEORY":"SGP4","NORAD_CAT_ID":"53546","PERIAPSIS":"538.706","REF_FRAME":"TEME","PERIOD":"95.437","RCS_SIZE":"LARGE","TIME_SYSTEM":"UTC","SEMIMAJOR_AXIS":"6917.870","TLE_LINE1":"1 53546U 22101V   23028.62058172 -.00000465  00000-0 -11140-4 0  9993","APOAPSIS":"540.765","MEAN_MOTION_DDOT":"0.0000000000000","INCLINATION":"53.2209","OBJECT_ID":"2022-101V","CLASSIFICATION_TYPE":"U"},{"COUNTRY_CODE":"US","ELEMENT_SET_NO":"999","BSTAR":"0.00002263700000","MEAN_MOTION":"15.08841694","DECAY_DATE":null,"OBJECT_TYPE":"PAYLOAD","REV_AT_EPOCH":"2478","EPOCH":"2023-01-28T13:01:06.640608","OBJECT_NAME":"STARLINK-4474","TLE_LINE2":"2 53547  53.2199 124.4803 0001317 102.6182 257.4957 15.08841694 24785","CENTER_NAME":"EARTH","ECCENTRICITY":"0.00013170","EPHEMERIS_TYPE":"0","FILE":"3764019","MEAN_MOTION_DOT":"0.00000072","SITE":"AFETR","INCLINATION":"53.2199","OBJECT_ID":"2022-101W","CLASSIFICATION_TYPE":"U","APOAPSIS":"540.651","TLE_LINE1":"1 53547U 22101W   23028.54243797  .00000072  00000-0  22637-4 0  9999","MEAN_MOTION_DDOT":"0.0000000000000","RCS_SIZE":"LARGE","PERIOD":"95.437","SEMIMAJOR_AXIS":"6917.875","TIME_SYSTEM":"UTC","MEAN_ELEMENT_THEORY":"SGP4","PERIAPSIS":"538.829","REF_FRAME":"TEME","NORAD_CAT_ID":"53547","MEAN_ANOMALY":"257.4957","ARG_OF_PERICENTER":"102.6182","RA_OF_ASC_NODE":"124.4803","GP_ID":"223885576","LAUNCH_DATE":"2022-08-19"},{"MEAN_ANOMALY":"266.1729","ARG_OF_PERICENTER":"93.9403","MEAN_ELEMENT_THEORY":"SGP4","NORAD_CAT_ID":"53548","PERIAPSIS":"538.871","REF_FRAME":"TEME","LAUNCH_DATE":"2022-08-19","GP_ID":"223915208","RA_OF_ASC_NODE":"123.9569","TLE_LINE1":"1 53548U 22101X   23028.66019475  .00001481  00000-0  11109-3 0  9993","APOAPSIS":"540.568","MEAN_MOTION_DDOT":"0.0000000000000","INCLINATION":"53.2169","OBJECT_ID":"2022-101X","CLASSIFICATION_TYPE":"U","PERIOD":"95.437","RCS_SIZE":"LARGE","TIME_SYSTEM":"UTC","SEMIMAJOR_AXIS":"6917.854","OBJECT_NAME":"STARLINK-4513","CENTER_NAME":"EARTH","TLE_LINE2":"2 53548  53.2169 123.9569 0001226  93.9403 266.1729 15.08848493 24804","REV_AT_EPOCH":"2480","OBJECT_TYPE":"PAYLOAD","EPOCH":"2023-01-28T15:50:40.826400","SITE":"AFETR","MEAN_MOTION_DOT":"0.00001481","ECCENTRICITY":"0.00012260","FILE":"3764201","EPHEMERIS_TYPE":"0","DECAY_DATE":null,"MEAN_MOTION":"15.08848493","ELEMENT_SET_NO":"999","COUNTRY_CODE":"US","BSTAR":"0.00011109000000"},{"ELEMENT_SET_NO":"999","COUNTRY_CODE":"US","BSTAR":"-0.00017553000000","DECAY_DATE":null,"MEAN_MOTION":"15.08852000","REV_AT_EPOCH":"2545","OBJECT_TYPE":"PAYLOAD","EPOCH":"2023-01-28T14:25:53.712768","OBJECT_NAME":"STARLINK-4516","CENTER_NAME":"EARTH","TLE_LINE2":"2 53549  53.2174 124.2143 0001084 102.0443 258.0670 15.08852000 25457","ECCENTRICITY":"0.00010840","FILE":"3764201","EPHEMERIS_TYPE":"0","SITE":"AFETR","MEAN_MOTION_DOT":"-0.00003081","INCLINATION":"53.2174","OBJECT_ID":"2022-101Y","CLASSIFICATION_TYPE":"U","TLE_LINE1":"1 53549U 22101Y   23028.60131612 -.00003081  00000-0 -17553-3 0  9995","APOAPSIS":"540.459","MEAN_MOTION_DDOT":"0.0000000000000","PERIOD":"95.437","RCS_SIZE":"LARGE","TIME_SYSTEM":"UTC","SEMIMAJOR_AXIS":"6917.844","MEAN_ELEMENT_THEORY":"SGP4","NORAD_CAT_ID":"53549","REF_FRAME":"TEME","PERIAPSIS":"538.959","MEAN_ANOMALY":"258.0670","ARG_OF_PERICENTER":"102.0443","GP_ID":"223913983","RA_OF_ASC_NODE":"124.2143","LAUNCH_DATE":"2022-08-19"},{"RA_OF_ASC_NODE":"124.5734","GP_ID":"223883178","LAUNCH_DATE":"2022-08-19","MEAN_ELEMENT_THEORY":"SGP4","PERIAPSIS":"538.845","REF_FRAME":"TEME","NORAD_CAT_ID":"53550","MEAN_ANOMALY":"275.0836","ARG_OF_PERICENTER":"85.0308","RCS_SIZE":"LARGE","PERIOD":"95.438","SEMIMAJOR_AXIS":"6917.904","TIME_SYSTEM":"UTC","INCLINATION":"53.2162","OBJECT_ID":"2022-101Z","CLASSIFICATION_TYPE":"U","APOAPSIS":"540.693","TLE_LINE1":"1 53550U 22101Z   23028.52404808 -.00000909  00000-0 -39020-4 0  9998","MEAN_MOTION_DDOT":"0.0000000000000","ECCENTRICITY":"0.00013360","FILE":"3763924","EPHEMERIS_TYPE":"0","MEAN_MOTION_DOT":"-0.00000909","SITE":"AFETR","OBJECT_TYPE":"PAYLOAD","REV_AT_EPOCH":"2544","EPOCH":"2023-01-28T12:34:37.754112","OBJECT_NAME":"STARLINK-4518","TLE_LINE2":"2 53550  53.2162 124.5734 0001336  85.0308 275.0836 15.08832242 25443","CENTER_NAME":"EARTH","ELEMENT_SET_NO":"999","COUNTRY_CODE":"US","BSTAR":"-0.00003902000000","MEAN_MOTION":"15.08832242","DECAY_DATE":null}];
